[
  {
    "COMMENT": "GENERATED VIA SPACETRACK.ORG API",
    "ORIGINATOR": "18 SPCS",
    "NORAD_CAT_ID": "54754",
    "OBJECT_NAME": "SWOT",
    "OBJECT_TYPE": "PAYLOAD",
    "CLASSIFICATION_TYPE": "U",
    "INTLDES": "22173A",
    "EPOCH": "2023-10-10 18:41:42",
    "EPOCH_MICROSECONDS": "437760",
    "MEAN_MOTION": "14.0016839",
    "ECCENTRICITY": "0.0000057",
    "INCLINATION": "77.6076",
    "RA_OF_ASC_NODE": "278.7552",
    "ARG_OF_PERICENTER": "25.924",
    "MEAN_ANOMALY": "334.1914",
    "EPHEMERIS_TYPE": "0",
    "ELEMENT_SET_NO": "999",
    "REV_AT_EPOCH": "4194",
    "BSTAR": "0.000083642",
    "MEAN_MOTION_DOT": "0.00000121",
    "MEAN_MOTION_DDOT": "0",
    "FILE": "4030378",
    "TLE_LINE0": "0 SWOT",
    "TLE_LINE1": "1 54754U 22173A   23283.77896340  .00000121  00000-0  83642-4 0  9993",
    "TLE_LINE2": "2 54754  77.6076 278.7552 0000057  25.9240 334.1914 14.00168390 41945",
    "OBJECT_ID": "2022-173A",
    "OBJECT_NUMBER": "54754",
    "SEMIMAJOR_AXIS": "7271.349",
    "PERIOD": "102.845",
    "APOGEE": "893.256",
    "PERIGEE": "893.173",
    "DECAYED": "0"
  },
  {
    "COMMENT": "GENERATED VIA SPACETRACK.ORG API",
    "ORIGINATOR": "18 SPCS",
    "NORAD_CAT_ID": "54754",
    "OBJECT_NAME": "SWOT",
    "OBJECT_TYPE": "PAYLOAD",
    "CLASSIFICATION_TYPE": "U",
    "INTLDES": "22173A",
    "EPOCH": "2023-10-10 22:07:29",
    "EPOCH_MICROSECONDS": "750304",
    "MEAN_MOTION": "14.00168404",
    "ECCENTRICITY": "0.0000058",
    "INCLINATION": "77.6076",
    "RA_OF_ASC_NODE": "278.5623",
    "ARG_OF_PERICENTER": "26.6338",
    "MEAN_ANOMALY": "333.4817",
    "EPHEMERIS_TYPE": "0",
    "ELEMENT_SET_NO": "999",
    "REV_AT_EPOCH": "4196",
    "BSTAR": "0.000079564",
    "MEAN_MOTION_DOT": "0.00000115",
    "MEAN_MOTION_DDOT": "0",
    "FILE": "4030441",
    "TLE_LINE0": "0 SWOT",
    "TLE_LINE1": "1 54754U 22173A   23283.92187211  .00000115  00000-0  79564-4 0  9991",
    "TLE_LINE2": "2 54754  77.6076 278.5623 0000058  26.6338 333.4817 14.00168404 41961",
    "OBJECT_ID": "2022-173A",
    "OBJECT_NUMBER": "54754",
    "SEMIMAJOR_AXIS": "7271.349",
    "PERIOD": "102.845",
    "APOGEE": "893.256",
    "PERIGEE": "893.172",
    "DECAYED": "0"
  },
  {
    "COMMENT": "GENERATED VIA SPACETRACK.ORG API",
    "ORIGINATOR": "18 SPCS",
    "NORAD_CAT_ID": "54754",
    "OBJECT_NAME": "SWOT",
    "OBJECT_TYPE": "PAYLOAD",
    "CLASSIFICATION_TYPE": "U",
    "INTLDES": "22173A",
    "EPOCH": "2023-10-11 13:33:32",
    "EPOCH_MICROSECONDS": "654592",
    "MEAN_MOTION": "14.00168579",
    "ECCENTRICITY": "0.0000056",
    "INCLINATION": "77.6076",
    "RA_OF_ASC_NODE": "277.6939",
    "ARG_OF_PERICENTER": "29.6782",
    "MEAN_ANOMALY": "330.4373",
    "EPHEMERIS_TYPE": "0",
    "ELEMENT_SET_NO": "999",
    "REV_AT_EPOCH": "4205",
    "BSTAR": "0.000079804",
    "MEAN_MOTION_DOT": "0.00000115",
    "MEAN_MOTION_DDOT": "0",
    "FILE": "4031093",
    "TLE_LINE0": "0 SWOT",
    "TLE_LINE1": "1 54754U 22173A   23284.56496128  .00000115  00000-0  79804-4 0  9999",
    "TLE_LINE2": "2 54754  77.6076 277.6939 0000056  29.6782 330.4373 14.00168579 42053",
    "OBJECT_ID": "2022-173A",
    "OBJECT_NUMBER": "54754",
    "SEMIMAJOR_AXIS": "7271.348",
    "PERIOD": "102.845",
    "APOGEE": "893.254",
    "PERIGEE": "893.173",
    "DECAYED": "0"
  },
  {
    "COMMENT": "GENERATED VIA SPACETRACK.ORG API",
    "ORIGINATOR": "18 SPCS",
    "NORAD_CAT_ID": "54754",
    "OBJECT_NAME": "SWOT",
    "OBJECT_TYPE": "PAYLOAD",
    "CLASSIFICATION_TYPE": "U",
    "INTLDES": "22173A",
    "EPOCH": "2023-10-12 03:16:41",
    "EPOCH_MICROSECONDS": "893536",
    "MEAN_MOTION": "14.00168791",
    "ECCENTRICITY": "0.000004",
    "INCLINATION": "77.6076",
    "RA_OF_ASC_NODE": "276.9221",
    "ARG_OF_PERICENTER": "32.1421",
    "MEAN_ANOMALY": "327.9733",
    "EPHEMERIS_TYPE": "0",
    "ELEMENT_SET_NO": "999",
    "REV_AT_EPOCH": "4213",
    "BSTAR": "0.000094631",
    "MEAN_MOTION_DOT": "0.00000137",
    "MEAN_MOTION_DDOT": "0",
    "FILE": "4031674",
    "TLE_LINE0": "0 SWOT",
    "TLE_LINE1": "1 54754U 22173A   23285.13659599  .00000137  00000-0  94631-4 0  9995",
    "TLE_LINE2": "2 54754  77.6076 276.9221 0000040  32.1421 327.9733 14.00168791 42137",
    "OBJECT_ID": "2022-173A",
    "OBJECT_NUMBER": "54754",
    "SEMIMAJOR_AXIS": "7271.348",
    "PERIOD": "102.845",
    "APOGEE": "893.242",
    "PERIGEE": "893.184",
    "DECAYED": "0"
  },
  {
    "COMMENT": "GENERATED VIA SPACETRACK.ORG API",
    "ORIGINATOR": "18 SPCS",
    "NORAD_CAT_ID": "54754",
    "OBJECT_NAME": "SWOT",
    "OBJECT_TYPE": "PAYLOAD",
    "CLASSIFICATION_TYPE": "U",
    "INTLDES": "22173A",
    "EPOCH": "2023-10-12 13:34:03",
    "EPOCH_MICROSECONDS": "825984",
    "MEAN_MOTION": "14.00168924",
    "ECCENTRICITY": "0.000005",
    "INCLINATION": "77.6076",
    "RA_OF_ASC_NODE": "276.3432",
    "ARG_OF_PERICENTER": "35.4677",
    "MEAN_ANOMALY": "324.6478",
    "EPHEMERIS_TYPE": "0",
    "ELEMENT_SET_NO": "999",
    "REV_AT_EPOCH": "4219",
    "BSTAR": "0.0001013",
    "MEAN_MOTION_DOT": "0.00000147",
    "MEAN_MOTION_DDOT": "0",
    "FILE": "4031907",
    "TLE_LINE0": "0 SWOT",
    "TLE_LINE1": "1 54754U 22173A   23285.56532206  .00000147  00000-0  10130-3 0  9999",
    "TLE_LINE2": "2 54754  77.6076 276.3432 0000050  35.4677 324.6478 14.00168924 42199",
    "OBJECT_ID": "2022-173A",
    "OBJECT_NUMBER": "54754",
    "SEMIMAJOR_AXIS": "7271.347",
    "PERIOD": "102.845",
    "APOGEE": "893.249",
    "PERIGEE": "893.176",
    "DECAYED": "0"
  },
  {
    "COMMENT": "GENERATED VIA SPACETRACK.ORG API",
    "ORIGINATOR": "18 SPCS",
    "NORAD_CAT_ID": "54754",
    "OBJECT_NAME": "SWOT",
    "OBJECT_TYPE": "PAYLOAD",
    "CLASSIFICATION_TYPE": "U",
    "INTLDES": "22173A",
    "EPOCH": "2023-10-12 22:08:32",
    "EPOCH_MICROSECONDS": "98272",
    "MEAN_MOTION": "14.00169043",
    "ECCENTRICITY": "0.0000051",
    "INCLINATION": "77.6076",
    "RA_OF_ASC_NODE": "275.8608",
    "ARG_OF_PERICENTER": "46.1536",
    "MEAN_ANOMALY": "313.962",
    "EPHEMERIS_TYPE": "0",
    "ELEMENT_SET_NO": "999",
    "REV_AT_EPOCH": "4224",
    "BSTAR": "0.00010996",
    "MEAN_MOTION_DOT": "0.0000016",
    "MEAN_MOTION_DDOT": "0",
    "FILE": "4032297",
    "TLE_LINE0": "0 SWOT",
    "TLE_LINE1": "1 54754U 22173A   23285.92259373  .00000160  00000-0  10996-3 0  9995",
    "TLE_LINE2": "2 54754  77.6076 275.8608 0000051  46.1536 313.9620 14.00169043 42241",
    "OBJECT_ID": "2022-173A",
    "OBJECT_NUMBER": "54754",
    "SEMIMAJOR_AXIS": "7271.347",
    "PERIOD": "102.845",
    "APOGEE": "893.249",
    "PERIGEE": "893.175",
    "DECAYED": "0"
  },
  {
    "COMMENT": "GENERATED VIA SPACETRACK.ORG API",
    "ORIGINATOR": "18 SPCS",
    "NORAD_CAT_ID": "54754",
    "OBJECT_NAME": "SWOT",
    "OBJECT_TYPE": "PAYLOAD",
    "CLASSIFICATION_TYPE": "U",
    "INTLDES": "22173A",
    "EPOCH": "2023-10-13 03:17:13",
    "EPOCH_MICROSECONDS": "61472",
    "MEAN_MOTION": "14.00169067",
    "ECCENTRICITY": "0.0000047",
    "INCLINATION": "77.6076",
    "RA_OF_ASC_NODE": "275.5714",
    "ARG_OF_PERICENTER": "46.8452",
    "MEAN_ANOMALY": "313.2704",
    "EPHEMERIS_TYPE": "0",
    "ELEMENT_SET_NO": "999",
    "REV_AT_EPOCH": "4227",
    "BSTAR": "0.0001114",
    "MEAN_MOTION_DOT": "0.00000162",
    "MEAN_MOTION_DDOT": "0",
    "FILE": "4032522",
    "TLE_LINE0": "0 SWOT",
    "TLE_LINE1": "1 54754U 22173A   23286.13695673  .00000162  00000-0  11140-3 0  9990",
    "TLE_LINE2": "2 54754  77.6076 275.5714 0000047  46.8452 313.2704 14.00169067 42270",
    "OBJECT_ID": "2022-173A",
    "OBJECT_NUMBER": "54754",
    "SEMIMAJOR_AXIS": "7271.347",
    "PERIOD": "102.845",
    "APOGEE": "893.246",
    "PERIGEE": "893.178",
    "DECAYED": "0"
  },
  {
    "COMMENT": "GENERATED VIA SPACETRACK.ORG API",
    "ORIGINATOR": "18 SPCS",
    "NORAD_CAT_ID": "54754",
    "OBJECT_NAME": "SWOT",
    "OBJECT_TYPE": "PAYLOAD",
    "CLASSIFICATION_TYPE": "U",
    "INTLDES": "22173A",
    "EPOCH": "2023-10-13 13:34:34",
    "EPOCH_MICROSECONDS": "981824",
    "MEAN_MOTION": "14.00169225",
    "ECCENTRICITY": "0.0000052",
    "INCLINATION": "77.6076",
    "RA_OF_ASC_NODE": "274.9925",
    "ARG_OF_PERICENTER": "47.6591",
    "MEAN_ANOMALY": "312.4564",
    "EPHEMERIS_TYPE": "0",
    "ELEMENT_SET_NO": "999",
    "REV_AT_EPOCH": "4233",
    "BSTAR": "0.00011623",
    "MEAN_MOTION_DOT": "0.00000169",
    "MEAN_MOTION_DDOT": "0",
    "FILE": "4032919",
    "TLE_LINE0": "0 SWOT",
    "TLE_LINE1": "1 54754U 22173A   23286.56568266  .00000169  00000-0  11623-3 0  9997",
    "TLE_LINE2": "2 54754  77.6076 274.9925 0000052  47.6591 312.4564 14.00169225 42334",
    "OBJECT_ID": "2022-173A",
    "OBJECT_NUMBER": "54754",
    "SEMIMAJOR_AXIS": "7271.346",
    "PERIOD": "102.845",
    "APOGEE": "893.249",
    "PERIGEE": "893.173",
    "DECAYED": "0"
  },
  {
    "COMMENT": "GENERATED VIA SPACETRACK.ORG API",
    "ORIGINATOR": "18 SPCS",
    "NORAD_CAT_ID": "54754",
    "OBJECT_NAME": "SWOT",
    "OBJECT_TYPE": "PAYLOAD",
    "CLASSIFICATION_TYPE": "U",
    "INTLDES": "22173A",
    "EPOCH": "2023-10-13 22:09:03",
    "EPOCH_MICROSECONDS": "241152",
    "MEAN_MOTION": "14.00169431",
    "ECCENTRICITY": "0.0000047",
    "INCLINATION": "77.6076",
    "RA_OF_ASC_NODE": "274.5101",
    "ARG_OF_PERICENTER": "55.799",
    "MEAN_ANOMALY": "304.3166",
    "EPHEMERIS_TYPE": "0",
    "ELEMENT_SET_NO": "999",
    "REV_AT_EPOCH": "4238",
    "BSTAR": "0.00013382",
    "MEAN_MOTION_DOT": "0.00000195",
    "MEAN_MOTION_DDOT": "0",
    "FILE": "4033175",
    "TLE_LINE0": "0 SWOT",
    "TLE_LINE1": "1 54754U 22173A   23286.92295418  .00000195  00000-0  13382-3 0  9996",
    "TLE_LINE2": "2 54754  77.6076 274.5101 0000047  55.7990 304.3166 14.00169431 42385",
    "OBJECT_ID": "2022-173A",
    "OBJECT_NUMBER": "54754",
    "SEMIMAJOR_AXIS": "7271.345",
    "PERIOD": "102.845",
    "APOGEE": "893.245",
    "PERIGEE": "893.176",
    "DECAYED": "0"
  }
]